NORAD_CAT_ID,OBJECT_NAME,OBJECT_TYPE,EPOCH,MEAN_MOTION,ECCENTRICITY,INCLINATION,RA_OF_ASC_NODE,ARG_OF_PERICENTER,MEAN_ANOMALY,BSTAR,MEAN_MOTION_DOT,MEAN_MOTION_DDOT,TLE_LINE0,TLE_LINE1,TLE_LINE2,SEMIMAJOR_AXIS,PERIOD,APOGEE,PERIGEE,DECAYED
51982.0,STARLINK-3650,PAYLOAD,2023-10-31 06:30:04,15.08837412,0.0001855,53.2174,301.6911,96.0578,264.0626,-3.1086e-06,-3.38e-06,0.0,0 STARLINK-3650,1 51982U 22025AC  23304.27088107 -.00000338  00000-0 -31086-5 0  9990,2 51982  53.2174 301.6911 0001855  96.0578 264.0626 15.08837412 91166,6917.888,95.438,541.037,538.47,0.0
51982.0,STARLINK-3650,PAYLOAD,2023-11-01 06:20:51,15.08846595,0.000169,53.217,297.2307,97.8812,262.2372,0.00028001,4.172e-05,0.0,0 STARLINK-3650,1 51982U 22025AC  23305.26448023  .00004172  00000-0  28001-3 0  9996,2 51982  53.2170 297.2307 0001690  97.8812 262.2372 15.08846595 92417,6917.86,95.437,540.894,538.556,0.0
51982.0,STARLINK-3650,PAYLOAD,2023-11-02 04:36:15,15.08843309,0.0001784,53.2169,293.0671,86.0942,274.0254,0.0001881,2.707e-05,0.0,0 STARLINK-3650,1 51982U 22025AC  23306.19184341  .00002707  00000-0  18810-3 0  9998,2 51982  53.2169 293.0671 0001784  86.0942 274.0254 15.08843309 92556,6917.87,95.437,540.969,538.501,0.0
51982.0,STARLINK-3650,PAYLOAD,2023-11-02 06:11:38,15.08846725,0.0001662,53.217,292.7697,87.3259,272.7923,0.00020969,3.051e-05,0.0,0 STARLINK-3650,1 51982U 22025AC  23306.25808100  .00003051  00000-0  20969-3 0  9992,2 51982  53.2170 292.7697 0001662  87.3259 272.7923 15.08846725 91464,6917.86,95.437,540.875,538.575,0.0
51982.0,STARLINK-3650,PAYLOAD,2023-11-02 22:05:29,15.0884081,0.0001774,53.219,289.8018,94.8517,265.2678,2.3285e-05,8.3e-07,0.0,0 STARLINK-3650,1 51982U 22025AC  23306.92048292  .00000083  00000-0  23285-4 0  9991,2 51982  53.2190 289.8018 0001774  94.8517 265.2678 15.08840810 91568,6917.878,95.438,540.97,538.516,0.0
51982.0,STARLINK-3650,PAYLOAD,2023-11-03 06:02:25,15.0884832,0.0001672,53.2172,288.3102,84.7451,275.3731,9.8854e-05,1.286e-05,0.0,0 STARLINK-3650,1 51982U 22025AC  23307.25167917  .00001286  00000-0  98854-4 0  9994,2 51982  53.2172 288.3102 0001672  84.7451 275.3731 15.08848320 92712,6917.855,95.437,540.877,538.563,0.0
51982.0,STARLINK-3650,PAYLOAD,2023-11-03 15:34:44,15.08843776,0.0001638,53.2172,286.5268,98.4772,261.6406,6.1689e-05,6.94e-06,0.0,0 STARLINK-3650,1 51982U 22025AC  23307.64912062  .00000694  00000-0  61689-4 0  9994,2 51982  53.2172 286.5268 0001638  98.4772 261.6406 15.08843776 91676,6917.869,95.437,540.867,538.601,0.0
51982.0,STARLINK-3650,PAYLOAD,2023-11-04 04:17:49,15.08840004,0.0001571,53.2181,284.1481,99.8823,260.2347,5.7884e-06,-1.96e-06,0.0,0 STARLINK-3650,1 51982U 22025AC  23308.17904247 -.00000196  00000-0  57884-5 0  9990,2 51982  53.2181 284.1481 0001571  99.8823 260.2347 15.08840004 92856,6917.88,95.438,540.832,538.659,0.0
51982.0,STARLINK-3650,PAYLOAD,2023-11-04 07:28:35,15.08847399,0.0001652,53.2168,283.5524,95.6207,264.4974,0.00013158,1.807e-05,0.0,0 STARLINK-3650,1 51982U 22025AC  23308.31151956  .00001807  00000-0  13158-3 0  9990,2 51982  53.2168 283.5524 0001652  95.6207 264.4974 15.08847399 91778,6917.858,95.437,540.866,538.58,0.0
51982.0,STARLINK-3650,PAYLOAD,2023-11-04 15:25:31,15.08841607,0.0001963,53.2176,282.064,85.6633,274.4584,3.8686e-05,3.28e-06,0.0,0 STARLINK-3650,1 51982U 22025AC  23308.64272380  .00000328  00000-0  38686-4 0  9992,2 51982  53.2176 282.0640 0001963  85.6633 274.4584 15.08841607 91827,6917.875,95.437,541.098,538.382,0.0
51982.0,STARLINK-3650,PAYLOAD,2023-11-05 04:08:37,15.08819774,0.0002153,53.2178,279.6853,85.7875,274.3363,0.0008224,0.00012818,0.0,0 STARLINK-3650,1 51982U 22025AC  23309.17266007  .00012818  00000-0  82240-3 0  9991,2 51982  53.2178 279.6853 0002153  85.7875 274.3363 15.08819774 93004,6917.942,95.439,541.297,538.318,0.0
51982.0,STARLINK-3650,PAYLOAD,2023-11-05 07:19:24,15.08821503,0.0002257,53.2181,279.09,83.8579,276.2671,0.0010871,0.00017047,0.0,0 STARLINK-3650,1 51982U 22025AC  23309.30514273  .00017047  00000-0  10871-2 0  9996,2 51982  53.2181 279.0900 0002257  83.8579 276.2671 15.08821503 91925,6917.937,95.439,541.363,538.241,0.0
51982.0,STARLINK-3650,PAYLOAD,2023-11-05 15:16:18,15.08845881,0.0001747,53.2168,277.6056,86.1849,273.9343,0.00020092,2.912e-05,0.0,0 STARLINK-3650,1 51982U 22025AC  23309.63632240  .00002912  00000-0  20092-3 0  9999,2 51982  53.2168 277.6056 0001747  86.1849 273.9343 15.08845881 93078,6917.862,95.437,540.936,538.519,0.0
51982.0,STARLINK-3650,PAYLOAD,2023-11-06 02:23:58,15.08889413,0.0001684,53.2152,275.5247,101.7518,258.3663,0.0010201,0.00016006,0.0,0 STARLINK-3650,1 51982U 22025AC  23310.09998278  .00016006  00000-0  10201-2 0  9996,2 51982  53.2152 275.5247 0001684 101.7518 258.3663 15.08889413 93146,6917.729,95.434,540.759,538.429,0.0
51982.0,STARLINK-3650,PAYLOAD,2023-11-06 05:34:44,15.0888837,0.0001477,53.2167,274.9269,104.8418,255.2737,0.00095321,0.00014935,0.0,0 STARLINK-3650,1 51982U 22025AC  23310.23245962  .00014935  00000-0  95321-3 0  9993,2 51982  53.2167 274.9269 0001477 104.8418 255.2737 15.08888370 92061,6917.733,95.434,540.619,538.576,0.0
51982.0,STARLINK-3650,PAYLOAD,2023-11-06 15:07:05,15.0881866,0.0002037,53.2173,273.1441,86.0562,274.0663,-0.00058914,-9.647e-05,0.0,0 STARLINK-3650,1 51982U 22025AC  23310.62992589 -.00009647  00000-0 -58914-3 0  9993,2 51982  53.2173 273.1441 0002037  86.0562 274.0663 15.08818660 93226,6917.946,95.439,541.22,538.401,0.0
51982.0,STARLINK-3650,PAYLOAD,2023-11-07 03:50:10,15.08822564,0.0001571,53.2162,270.7628,107.9305,252.1858,-0.00033628,-5.633e-05,0.0,0 STARLINK-3650,1 51982U 22025AC  23311.15984844 -.00005633  00000-0 -33628-3 0  9993,2 51982  53.2162 270.7628 0001571 107.9305 252.1858 15.08822564 93304,6917.934,95.439,540.885,538.712,0.0
51982.0,STARLINK-3650,PAYLOAD,2023-11-07 07:00:57,15.08833131,0.0001614,53.2175,270.1709,92.6125,267.5052,1.7732e-06,-2.6e-06,0.0,0 STARLINK-3650,1 51982U 22025AC  23311.29232710 -.00000260  00000-0  17732-5 0  9996,2 51982  53.2175 270.1709 0001614  92.6125 267.5052 15.08833131 93320,6917.901,95.438,540.883,538.65,0.0
51982.0,STARLINK-3650,PAYLOAD,2023-11-07 14:57:53,15.08823556,0.0001543,53.2181,268.6834,89.92,270.1969,-5.7323e-05,-1.2e-05,0.0,0 STARLINK-3650,1 51982U 22025AC  23311.62353356 -.00001200  00000-0 -57323-4 0  9998,2 51982  53.2181 268.6834 0001543  89.9200 270.1969 15.08823556 93374,6917.931,95.439,540.863,538.728,0.0
51982.0,STARLINK-3650,PAYLOAD,2023-11-08 03:40:58,15.08844036,0.0001471,53.2165,266.3056,89.6132,270.5029,0.00036019,5.45e-05,0.0,0 STARLINK-3650,1 51982U 22025AC  23312.15345082  .00005450  00000-0  36019-3 0  9991,2 51982  53.2165 266.3056 0001471  89.6132 270.5029 15.08844036 93454,6917.868,95.437,540.751,538.715,0.0
51982.0,STARLINK-3650,PAYLOAD,2023-11-08 06:51:44,15.08852083,0.0001391,53.2176,265.71,92.4842,267.6309,0.00047594,7.297e-05,0.0,0 STARLINK-3650,1 51982U 22025AC  23312.28592708  .00007297  00000-0  47594-3 0  9995,2 51982  53.2176 265.7100 0001391  92.4842 267.6309 15.08852083 92379,6917.843,95.437,540.671,538.746,0.0
51982.0,STARLINK-3650,PAYLOAD,2023-11-09 03:31:43,15.08875774,0.0001296,53.2168,261.845,96.4646,263.6494,0.00086661,0.00013544,0.0,0 STARLINK-3650,1 51982U 22025AC  23313.14703579  .00013544  00000-0  86661-3 0  9991,2 51982  53.2168 261.8450 0001296  96.4646 263.6494 15.08875774 93605,6917.771,95.435,540.533,538.74,0.0
51982.0,STARLINK-3650,PAYLOAD,2023-11-10 03:22:31,15.08837903,0.0001273,53.2171,257.384,84.9104,275.2034,-0.0001749,-3.07e-05,0.0,0 STARLINK-3650,1 51982U 22025AC  23314.14064382 -.00003070  00000-0 -17490-3 0  9993,2 51982  53.2171 257.3840 0001273  84.9104 275.2034 15.08837903 93755,6917.887,95.438,540.632,538.871,0.0
51982.0,STARLINK-3650,PAYLOAD,2023-11-10 12:54:49,15.08845666,0.000143,53.218,255.6017,93.9822,266.1334,-7.5258e-05,-1.486e-05,0.0,0 STARLINK-3650,1 51982U 22025AC  23314.53807718 -.00001486  00000-0 -75258-4 0  9990,2 51982  53.2180 255.6017 0001430  93.9822 266.1334 15.08845666 92716,6917.863,95.437,540.717,538.739,0.0
51982.0,STARLINK-3650,PAYLOAD,2023-11-11 03:13:17,15.08855492,0.0001272,53.2177,252.9246,94.6252,265.4885,0.00019351,2.794e-05,0.0,0 STARLINK-3650,1 51982U 22025AC  23315.13423370  .00002794  00000-0  19351-3 0  9997,2 51982  53.2177 252.9246 0001272  94.6252 265.4885 15.08855492 93908,6917.833,95.437,540.578,538.818,0.0
51982.0,STARLINK-3650,PAYLOAD,2023-11-11 12:45:36,15.08840174,0.000157,53.2177,251.1392,96.6199,263.4971,0.0003246,4.882e-05,0.0,0 STARLINK-3650,1 51982U 22025AC  23315.53167750  .00004882  00000-0  32460-3 0  9994,2 51982  53.2177 251.1392 0001570  96.6199 263.4971 15.08840174 92863,6917.88,95.438,540.831,538.659,0.0
51982.0,STARLINK-3650,PAYLOAD,2023-11-11 19:07:09,15.08843151,0.0001551,53.2179,249.9501,102.0931,258.0235,0.00033964,5.122e-05,0.0,0 STARLINK-3650,1 51982U 22025AC  23315.79663876  .00005122  00000-0  33964-3 0  9990,2 51982  53.2179 249.9501 0001551 102.0931 258.0235 15.08843151 94006,6917.871,95.437,540.809,538.663,0.0
51982.0,STARLINK-3650,PAYLOAD,2023-11-12 03:04:04,15.08857554,0.0001557,53.2176,248.4642,96.3998,263.7171,0.00035795,5.416e-05,0.0,0 STARLINK-3650,1 51982U 22025AC  23316.12783101  .00005416  00000-0  35795-3 0  9992,2 51982  53.2176 248.4642 0001557  96.3998 263.7171 15.08857554 94056,6917.827,95.436,540.769,538.615,0.0
51982.0,STARLINK-3650,PAYLOAD,2023-11-12 12:36:23,15.08838157,0.000184,53.2173,246.6802,86.219,273.9013,-7.7839e-05,-1.527e-05,0.0,0 STARLINK-3650,1 51982U 22025AC  23316.52527716 -.00001527  00000-0 -77839-4 0  9991,2 51982  53.2173 246.6802 0001840  86.2190 273.9013 15.08838157 93019,6917.886,95.438,541.024,538.478,0.0
51982.0,STARLINK-3650,PAYLOAD,2023-11-13 02:54:52,15.08827465,0.000175,53.2176,244.0026,87.7987,272.3205,-0.00016321,-2.884e-05,0.0,0 STARLINK-3650,1 51982U 22025AC  23317.12144637 -.00002884  00000-0 -16321-3 0  9990,2 51982  53.2176 244.0026 0001750  87.7987 272.3205 15.08827465 94200,6917.919,95.438,540.994,538.573,0.0
